ONEWEB-0156             
1 48052U 21025L   26071.29643338 -.00000165  00000+0 -48705-3 0  9993
2 48052  87.9027 339.4908 0001657  79.2327 280.8988 13.13469753240853
ONEWEB-0161             
1 48053U 21025M   26071.27104902  .00000349  00000+0  92048-3 0  9992
2 48053  87.9034 339.5023 0001855  73.3564 286.7769 13.13470400240784
ONEWEB-0158             
1 48054U 21025N   26071.30659032 -.00000236  00000+0 -68228-3 0  9996
2 48054  87.9044 339.4860 0001645  89.0829 271.0488 13.13470563240919
ONEWEB-0157             
1 48055U 21025P   26071.25581112  .00000215  00000+0  55272-3 0  9994
2 48055  87.9041 339.5010 0002089  73.9796 286.1563 13.13470689240845
ONEWEB-0162             
1 48056U 21025Q   26071.23195632 -.00000214  00000+0 -62031-3 0  9993
2 48056  87.9046 339.5097 0001685  73.3526 286.7789 13.13472073240814
ONEWEB-0155             
1 48057U 21025R   26071.23887979 -.00000168  00000+0 -49478-3 0  9994
2 48057  87.9034 339.5072 0001927  80.0445 280.0902 13.13470399240957
ONEWEB-0149             
1 48058U 21025S   26071.26088770  .00000368  00000+0  97242-3 0  9992
2 48058  87.9042 339.5000 0001650  70.5196 289.6112 13.13470520240761
ONEWEB-0148             
1 48059U 21025T   26071.29981073 -.00000218  00000+0 -63215-3 0  9993
2 48059  87.9034 339.5069 0001750  57.5747 302.5552 13.13471687240898
ONEWEB-0160             
1 48060U 21025U   26071.16438800  .00000256  00000+0  66530-3 0  9999
2 48060  87.9034 339.5297 0001093  90.4237 269.7017 13.13469617240826
ONEWEB-0163             
1 48061U 21025V   26071.30151302 -.00000254  00000+0 -73173-3 0  9996
2 48061  87.9035 339.4953 0001995  75.6489 284.4862 13.13470285240961
ONEWEB-0159             
1 48062U 21025W   26071.29304776 -.00000072  00000+0 -23134-3 0  9990
2 48062  87.9045 339.4833 0001900  72.2232 287.9104 13.13469189240884
ONEWEB-0164             
1 48063U 21025X   26071.27443025  .00000345  00000+0  90936-3 0  9995
2 48063  87.9044 339.4938 0001699  80.5198 279.6123 13.13470158240863
ONEWEB-0167             
1 48064U 21025Y   26071.30237151 -.00000218  00000+0 -63153-3 0  9993
2 48064  87.9034 339.5071 0002357  88.1533 271.9866 13.13470989240851
ONEWEB-0166             
1 48065U 21025Z   26071.24903376  .00000041  00000+0  77891-4 0  9993
2 48065  87.9043 339.4805 0001763  71.9680 288.1641 13.13471078240928
ONEWEB-0151             
1 48066U 21025AA  26071.25073463  .00000105  00000+0  25327-3 0  9997
2 48066  87.9036 339.5055 0001821  82.3062 277.8274 13.13470813240860
ONEWEB-0170             
1 48067U 21025AB  26071.25919336  .00000275  00000+0  71915-3 0  9998
2 48067  87.9035 339.5058 0001717  94.2670 265.8655 13.13471378240827
