[{"OBJECT_NAME":"ONEWEB-0156","OBJECT_ID":"2021-025L","EPOCH":"2026-03-12T07:06:51.844032","MEAN_MOTION":13.13469753,"ECCENTRICITY":0.0001657,"INCLINATION":87.9027,"RA_OF_ASC_NODE":339.4908,"ARG_OF_PERICENTER":79.2327,"MEAN_ANOMALY":280.8988,"EPHEMERIS_TYPE":0,"CLASSIFICATION_TYPE":"U","NORAD_CAT_ID":48052,"ELEMENT_SET_NO":999,"REV_AT_EPOCH":24085,"BSTAR":-0.00048704986,"MEAN_MOTION_DOT":-1.65e-6,"MEAN_MOTION_DDOT":0},{"OBJECT_NAME":"ONEWEB-0161","OBJECT_ID":"2021-025M","EPOCH":"2026-03-12T06:30:18.635328","MEAN_MOTION":13.134704,"ECCENTRICITY":0.00018553,"INCLINATION":87.9034,"RA_OF_ASC_NODE":339.5023,"ARG_OF_PERICENTER":73.3564,"MEAN_ANOMALY":286.7769,"EPHEMERIS_TYPE":0,"CLASSIFICATION_TYPE":"U","NORAD_CAT_ID":48053,"ELEMENT_SET_NO":999,"REV_AT_EPOCH":24078,"BSTAR":0.00092047893,"MEAN_MOTION_DOT":3.49e-6,"MEAN_MOTION_DDOT":0},{"OBJECT_NAME":"ONEWEB-0158","OBJECT_ID":"2021-025N","EPOCH":"2026-03-12T07:21:29.403648","MEAN_MOTION":13.13470563,"ECCENTRICITY":0.00016451,"INCLINATION":87.9044,"RA_OF_ASC_NODE":339.486,"ARG_OF_PERICENTER":89.0829,"MEAN_ANOMALY":271.0488,"EPHEMERIS_TYPE":0,"CLASSIFICATION_TYPE":"U","NORAD_CAT_ID":48054,"ELEMENT_SET_NO":999,"REV_AT_EPOCH":24091,"BSTAR":-0.00068227658,"MEAN_MOTION_DOT":-2.36e-6,"MEAN_MOTION_DDOT":0},{"OBJECT_NAME":"ONEWEB-0157","OBJECT_ID":"2021-025P","EPOCH":"2026-03-12T06:08:22.080768","MEAN_MOTION":13.13470689,"ECCENTRICITY":0.00020895,"INCLINATION":87.9041,"RA_OF_ASC_NODE":339.501,"ARG_OF_PERICENTER":73.9796,"MEAN_ANOMALY":286.1563,"EPHEMERIS_TYPE":0,"CLASSIFICATION_TYPE":"U","NORAD_CAT_ID":48055,"ELEMENT_SET_NO":999,"REV_AT_EPOCH":24084,"BSTAR":0.00055272087,"MEAN_MOTION_DOT":2.15e-6,"MEAN_MOTION_DDOT":0},{"OBJECT_NAME":"ONEWEB-0162","OBJECT_ID":"2021-025Q","EPOCH":"2026-03-12T05:34:01.026048","MEAN_MOTION":13.13472073,"ECCENTRICITY":0.00016859,"INCLINATION":87.9046,"RA_OF_ASC_NODE":339.5097,"ARG_OF_PERICENTER":73.3526,"MEAN_ANOMALY":286.7789,"EPHEMERIS_TYPE":0,"CLASSIFICATION_TYPE":"U","NORAD_CAT_ID":48056,"ELEMENT_SET_NO":999,"REV_AT_EPOCH":24081,"BSTAR":-0.00062031098,"MEAN_MOTION_DOT":-2.14e-6,"MEAN_MOTION_DDOT":0},{"OBJECT_NAME":"ONEWEB-0155","OBJECT_ID":"2021-025R","EPOCH":"2026-03-12T05:43:59.213856","MEAN_MOTION":13.13470399,"ECCENTRICITY":0.00019275,"INCLINATION":87.9034,"RA_OF_ASC_NODE":339.5072,"ARG_OF_PERICENTER":80.0445,"MEAN_ANOMALY":280.0902,"EPHEMERIS_TYPE":0,"CLASSIFICATION_TYPE":"U","NORAD_CAT_ID":48057,"ELEMENT_SET_NO":999,"REV_AT_EPOCH":24095,"BSTAR":-0.00049477953,"MEAN_MOTION_DOT":-1.68e-6,"MEAN_MOTION_DDOT":0},{"OBJECT_NAME":"ONEWEB-0149","OBJECT_ID":"2021-025S","EPOCH":"2026-03-12T06:15:40.697280","MEAN_MOTION":13.1347052,"ECCENTRICITY":0.00016504,"INCLINATION":87.9042,"RA_OF_ASC_NODE":339.5,"ARG_OF_PERICENTER":70.5196,"MEAN_ANOMALY":289.6112,"EPHEMERIS_TYPE":0,"CLASSIFICATION_TYPE":"U","NORAD_CAT_ID":48058,"ELEMENT_SET_NO":999,"REV_AT_EPOCH":24076,"BSTAR":0.00097241626,"MEAN_MOTION_DOT":3.68e-6,"MEAN_MOTION_DDOT":0},{"OBJECT_NAME":"ONEWEB-0148","OBJECT_ID":"2021-025T","EPOCH":"2026-03-12T07:11:43.647072","MEAN_MOTION":13.13471687,"ECCENTRICITY":0.00017504,"INCLINATION":87.9034,"RA_OF_ASC_NODE":339.5069,"ARG_OF_PERICENTER":57.5747,"MEAN_ANOMALY":302.5552,"EPHEMERIS_TYPE":0,"CLASSIFICATION_TYPE":"U","NORAD_CAT_ID":48059,"ELEMENT_SET_NO":999,"REV_AT_EPOCH":24089,"BSTAR":-0.00063215325,"MEAN_MOTION_DOT":-2.18e-6,"MEAN_MOTION_DDOT":0},{"OBJECT_NAME":"ONEWEB-0160","OBJECT_ID":"2021-025U","EPOCH":"2026-03-12T03:56:43.123200","MEAN_MOTION":13.13469617,"ECCENTRICITY":0.00010936,"INCLINATION":87.9034,"RA_OF_ASC_NODE":339.5297,"ARG_OF_PERICENTER":90.4237,"MEAN_ANOMALY":269.7017,"EPHEMERIS_TYPE":0,"CLASSIFICATION_TYPE":"U","NORAD_CAT_ID":48060,"ELEMENT_SET_NO":999,"REV_AT_EPOCH":24082,"BSTAR":0.00066529991,"MEAN_MOTION_DOT":2.56e-6,"MEAN_MOTION_DDOT":0},{"OBJECT_NAME":"ONEWEB-0163","OBJECT_ID":"2021-025V","EPOCH":"2026-03-12T07:14:10.724928","MEAN_MOTION":13.13470285,"ECCENTRICITY":0.00019954,"INCLINATION":87.9035,"RA_OF_ASC_NODE":339.4953,"ARG_OF_PERICENTER":75.6489,"MEAN_ANOMALY":284.4862,"EPHEMERIS_TYPE":0,"CLASSIFICATION_TYPE":"U","NORAD_CAT_ID":48061,"ELEMENT_SET_NO":999,"REV_AT_EPOCH":24096,"BSTAR":-0.00073172731,"MEAN_MOTION_DOT":-2.54e-6,"MEAN_MOTION_DDOT":0},{"OBJECT_NAME":"ONEWEB-0159","OBJECT_ID":"2021-025W","EPOCH":"2026-03-12T07:01:59.326464","MEAN_MOTION":13.13469189,"ECCENTRICITY":0.00019002,"INCLINATION":87.9045,"RA_OF_ASC_NODE":339.4833,"ARG_OF_PERICENTER":72.2232,"MEAN_ANOMALY":287.9104,"EPHEMERIS_TYPE":0,"CLASSIFICATION_TYPE":"U","NORAD_CAT_ID":48062,"ELEMENT_SET_NO":999,"REV_AT_EPOCH":24088,"BSTAR":-0.00023133948,"MEAN_MOTION_DOT":-7.2e-7,"MEAN_MOTION_DDOT":0},{"OBJECT_NAME":"ONEWEB-0164","OBJECT_ID":"2021-025X","EPOCH":"2026-03-12T06:35:10.773600","MEAN_MOTION":13.13470158,"ECCENTRICITY":0.0001699,"INCLINATION":87.9044,"RA_OF_ASC_NODE":339.4938,"ARG_OF_PERICENTER":80.5198,"MEAN_ANOMALY":279.6123,"EPHEMERIS_TYPE":0,"CLASSIFICATION_TYPE":"U","NORAD_CAT_ID":48063,"ELEMENT_SET_NO":999,"REV_AT_EPOCH":24086,"BSTAR":0.00090936482,"MEAN_MOTION_DOT":3.45e-6,"MEAN_MOTION_DDOT":0},{"OBJECT_NAME":"ONEWEB-0167","OBJECT_ID":"2021-025Y","EPOCH":"2026-03-12T07:15:24.898464","MEAN_MOTION":13.13470989,"ECCENTRICITY":0.00023577,"INCLINATION":87.9034,"RA_OF_ASC_NODE":339.5071,"ARG_OF_PERICENTER":88.1533,"MEAN_ANOMALY":271.9866,"EPHEMERIS_TYPE":0,"CLASSIFICATION_TYPE":"U","NORAD_CAT_ID":48064,"ELEMENT_SET_NO":999,"REV_AT_EPOCH":24085,"BSTAR":-0.00063152642,"MEAN_MOTION_DOT":-2.18e-6,"MEAN_MOTION_DDOT":0},{"OBJECT_NAME":"ONEWEB-0166","OBJECT_ID":"2021-025Z","EPOCH":"2026-03-12T05:58:36.516864","MEAN_MOTION":13.13471078,"ECCENTRICITY":0.00017636,"INCLINATION":87.9043,"RA_OF_ASC_NODE":339.4805,"ARG_OF_PERICENTER":71.968,"MEAN_ANOMALY":288.1641,"EPHEMERIS_TYPE":0,"CLASSIFICATION_TYPE":"U","NORAD_CAT_ID":48065,"ELEMENT_SET_NO":999,"REV_AT_EPOCH":24092,"BSTAR":7.7891142e-5,"MEAN_MOTION_DOT":4.1e-7,"MEAN_MOTION_DDOT":0},{"OBJECT_NAME":"ONEWEB-0151","OBJECT_ID":"2021-025AA","EPOCH":"2026-03-12T06:01:03.472032","MEAN_MOTION":13.13470813,"ECCENTRICITY":0.00018218,"INCLINATION":87.9036,"RA_OF_ASC_NODE":339.5055,"ARG_OF_PERICENTER":82.3062,"MEAN_ANOMALY":277.8274,"EPHEMERIS_TYPE":0,"CLASSIFICATION_TYPE":"U","NORAD_CAT_ID":48066,"ELEMENT_SET_NO":999,"REV_AT_EPOCH":24086,"BSTAR":0.00025326787,"MEAN_MOTION_DOT":1.05e-6,"MEAN_MOTION_DDOT":0},{"OBJECT_NAME":"ONEWEB-0170","OBJECT_ID":"2021-025AB","EPOCH":"2026-03-12T06:13:14.306304","MEAN_MOTION":13.13471378,"ECCENTRICITY":0.0001717,"INCLINATION":87.9035,"RA_OF_ASC_NODE":339.5058,"ARG_OF_PERICENTER":94.267,"MEAN_ANOMALY":265.8655,"EPHEMERIS_TYPE":0,"CLASSIFICATION_TYPE":"U","NORAD_CAT_ID":48067,"ELEMENT_SET_NO":999,"REV_AT_EPOCH":24082,"BSTAR":0.00071915381,"MEAN_MOTION_DOT":2.75e-6,"MEAN_MOTION_DDOT":0}]
